{
  "type": "FeatureCollection",
  "features": [
    {
      "type": "Feature",
      "properties": {
        "norad_id": 36533,
        "name": "COSMOS 2251 DEB",
        "group": "cosmos-2251-debris",
        "lat": -71.25670750506518,
        "lon": -5.854149924308563,
        "alt_km": 698.4118316968925,
        "timestamp": "2025-12-11T20:41:15.478315+00:00",
        "meta_object_name": "COSMOS 2251 DEB",
        "meta_object_id": "1993-036BCT",
        "meta_epoch": "2025-12-11T02:55:41.664000",
        "meta_mean_motion": 14.498054,
        "meta_eccentricity": 0.00492095,
        "meta_inclination": 74.0114,
        "meta_ra_of_asc_node": 117.868,
        "meta_arg_of_pericenter": 267.3068,
        "meta_mean_anomaly": 92.2459,
        "meta_ephemeris_type": 0,
        "meta_classification_type": "U",
        "meta_norad_cat_id": 36533,
        "meta_element_set_no": 999,
        "meta_rev_at_epoch": 84461,
        "meta_bstar": 0.00077586948,
        "meta_mean_motion_dot": 3.011e-05,
        "meta_mean_motion_ddot": 0,
        "tle_line1": "1 36533U 93036BCT 25345.12201000  .00003011  00000+0  77587-3 0  9997",
        "tle_line2": "2 36533  74.0114 117.8680 0049209 267.3068  92.2459 14.49805400844615"
      },
      "geometry": {
        "type": "Point",
        "coordinates": [
          -5.854149924308563,
          -71.25670750506518
        ]
      }
    },
    {
      "type": "Feature",
      "properties": {
        "norad_id": 36539,
        "name": "COSMOS 2251 DEB",
        "group": "cosmos-2251-debris",
        "lat": 65.54347457978464,
        "lon": 95.89736876892206,
        "alt_km": 701.2968560195868,
        "timestamp": "2025-12-11T20:41:15.478325+00:00",
        "meta_object_name": "COSMOS 2251 DEB",
        "meta_object_id": "1993-036BCZ",
        "meta_epoch": "2025-12-11T15:25:29.467488",
        "meta_mean_motion": 14.59291195,
        "meta_eccentricity": 0.00272696,
        "meta_inclination": 74.0237,
        "meta_ra_of_asc_node": 57.2724,
        "meta_arg_of_pericenter": 202.5969,
        "meta_mean_anomaly": 157.3998,
        "meta_ephemeris_type": 0,
        "meta_classification_type": "U",
        "meta_norad_cat_id": 36539,
        "meta_element_set_no": 999,
        "meta_rev_at_epoch": 83931,
        "meta_bstar": 0.0011949516,
        "meta_mean_motion_dot": 5.65e-05,
        "meta_mean_motion_ddot": 0,
        "tle_line1": "1 36539U 93036BCZ 25345.64270217  .00005650  00000+0  11950-2 0  9998",
        "tle_line2": "2 36539  74.0237  57.2724 0027269 202.5969 157.3998 14.59291195839319"
      },
      "geometry": {
        "type": "Point",
        "coordinates": [
          95.89736876892206,
          65.54347457978464
        ]
      }
    },
    {
      "type": "Feature",
      "properties": {
        "norad_id": 36540,
        "name": "COSMOS 2251 DEB",
        "group": "cosmos-2251-debris",
        "lat": 34.41026892290108,
        "lon": -166.4981084888945,
        "alt_km": 704.1545892501563,
        "timestamp": "2025-12-11T20:41:15.478335+00:00",
        "meta_object_name": "COSMOS 2251 DEB",
        "meta_object_id": "1993-036BDA",
        "meta_epoch": "2025-12-10T19:49:44.721120",
        "meta_mean_motion": 14.58450525,
        "meta_eccentricity": 0.00150636,
        "meta_inclination": 74.0281,
        "meta_ra_of_asc_node": 184.1599,
        "meta_arg_of_pericenter": 254.4622,
        "meta_mean_anomaly": 105.488,
        "meta_ephemeris_type": 0,
        "meta_classification_type": "U",
        "meta_norad_cat_id": 36540,
        "meta_element_set_no": 999,
        "meta_rev_at_epoch": 85982,
        "meta_bstar": 0.0015654677,
        "meta_mean_motion_dot": 7.253e-05,
        "meta_mean_motion_ddot": 0,
        "tle_line1": "1 36540U 93036BDA 25344.82621205  .00007253  00000+0  15655-2 0  9993",
        "tle_line2": "2 36540  74.0281 184.1599 0015063 254.4622 105.4880 14.58450525859826"
      },
      "geometry": {
        "type": "Point",
        "coordinates": [
          -166.4981084888945,
          34.41026892290108
        ]
      }
    },
    {
      "type": "Feature",
      "properties": {
        "norad_id": 36550,
        "name": "COSMOS 2251 DEB",
        "group": "cosmos-2251-debris",
        "lat": -23.460262529256926,
        "lon": -172.80234818215672,
        "alt_km": 806.2586339496993,
        "timestamp": "2025-12-11T20:41:15.478345+00:00",
        "meta_object_name": "COSMOS 2251 DEB",
        "meta_object_id": "1993-036BDL",
        "meta_epoch": "2025-12-10T07:47:30.355296",
        "meta_mean_motion": 14.27188592,
        "meta_eccentricity": 0.00785726,
        "meta_inclination": 74.0439,
        "meta_ra_of_asc_node": 197.11,
        "meta_arg_of_pericenter": 248.3043,
        "meta_mean_anomaly": 110.9727,
        "meta_ephemeris_type": 0,
        "meta_classification_type": "U",
        "meta_norad_cat_id": 36550,
        "meta_element_set_no": 999,
        "meta_rev_at_epoch": 84561,
        "meta_bstar": 0.00085111774,
        "meta_mean_motion_dot": 2.122e-05,
        "meta_mean_motion_ddot": 0,
        "tle_line1": "1 36550U 93036BDL 25344.32465689  .00002122  00000+0  85112-3 0  9997",
        "tle_line2": "2 36550  74.0439 197.1100 0078572 248.3043 110.9727 14.27188592845618"
      },
      "geometry": {
        "type": "Point",
        "coordinates": [
          -172.80234818215672,
          -23.460262529256926
        ]
      }
    },
    {
      "type": "Feature",
      "properties": {
        "norad_id": 36551,
        "name": "COSMOS 2251 DEB",
        "group": "cosmos-2251-debris",
        "lat": 25.554534459786616,
        "lon": -171.43402175940554,
        "alt_km": 592.9496638614892,
        "timestamp": "2025-12-11T20:41:15.478355+00:00",
        "meta_object_name": "COSMOS 2251 DEB",
        "meta_object_id": "1993-036BDM",
        "meta_epoch": "2025-12-11T08:49:13.161216",
        "meta_mean_motion": 15.02499936,
        "meta_eccentricity": 0.00508907,
        "meta_inclination": 73.8866,
        "meta_ra_of_asc_node": 17.5288,
        "meta_arg_of_pericenter": 326.8446,
        "meta_mean_anomaly": 32.9554,
        "meta_ephemeris_type": 0,
        "meta_classification_type": "U",
        "meta_norad_cat_id": 36551,
        "meta_element_set_no": 999,
        "meta_rev_at_epoch": 66911,
        "meta_bstar": 0.0023963096,
        "meta_mean_motion_dot": 0.00032841,
        "meta_mean_motion_ddot": 0,
        "tle_line1": "1 36551U 93036BDM 25345.36751344  .00032841  00000+0  23963-2 0  9995",
        "tle_line2": "2 36551  73.8866  17.5288 0050890 326.8446  32.9554 15.02499936669115"
      },
      "geometry": {
        "type": "Point",
        "coordinates": [
          -171.43402175940554,
          25.554534459786616
        ]
      }
    },
    {
      "type": "Feature",
      "properties": {
        "norad_id": 36557,
        "name": "COSMOS 2251 DEB",
        "group": "cosmos-2251-debris",
        "lat": -31.090577438621725,
        "lon": -42.041893818136714,
        "alt_km": 635.0048047859045,
        "timestamp": "2025-12-11T20:41:15.478364+00:00",
        "meta_object_name": "COSMOS 2251 DEB",
        "meta_object_id": "1993-036BDT",
        "meta_epoch": "2025-12-10T16:06:48.613536",
        "meta_mean_motion": 14.78068124,
        "meta_eccentricity": 0.00210997,
        "meta_inclination": 73.9801,
        "meta_ra_of_asc_node": 130.3261,
        "meta_arg_of_pericenter": 281.9756,
        "meta_mean_anomaly": 77.9054,
        "meta_ephemeris_type": 0,
        "meta_classification_type": "U",
        "meta_norad_cat_id": 36557,
        "meta_element_set_no": 999,
        "meta_rev_at_epoch": 33866,
        "meta_bstar": 0.0052878303,
        "meta_mean_motion_dot": 0.00038549,
        "meta_mean_motion_ddot": 0,
        "tle_line1": "1 36557U 93036BDT 25344.67139599  .00038549  00000+0  52878-2 0  9994",
        "tle_line2": "2 36557  73.9801 130.3261 0021099 281.9756  77.9054 14.78068124338660"
      },
      "geometry": {
        "type": "Point",
        "coordinates": [
          -42.041893818136714,
          -31.090577438621725
        ]
      }
    },
    {
      "type": "Feature",
      "properties": {
        "norad_id": 36558,
        "name": "COSMOS 2251 DEB",
        "group": "cosmos-2251-debris",
        "lat": -41.59280923976103,
        "lon": -9.080553843083457,
        "alt_km": 705.8610774704275,
        "timestamp": "2025-12-11T20:41:15.478374+00:00",
        "meta_object_name": "COSMOS 2251 DEB",
        "meta_object_id": "1993-036BDU",
        "meta_epoch": "2025-12-09T18:10:09.606432",
        "meta_mean_motion": 14.55323693,
        "meta_eccentricity": 0.00129627,
        "meta_inclination": 74.0418,
        "meta_ra_of_asc_node": 160.1895,
        "meta_arg_of_pericenter": 248.6111,
        "meta_mean_anomaly": 111.367,
        "meta_ephemeris_type": 0,
        "meta_classification_type": "U",
        "meta_norad_cat_id": 36558,
        "meta_element_set_no": 999,
        "meta_rev_at_epoch": 85225,
        "meta_bstar": 0.0013992246,
        "meta_mean_motion_dot": 6.051e-05,
        "meta_mean_motion_ddot": 0,
        "tle_line1": "1 36558U 93036BDU 25343.75705563  .00006051  00000+0  13992-2 0  9990",
        "tle_line2": "2 36558  74.0418 160.1895 0012962 248.6111 111.3670 14.55323693852258"
      },
      "geometry": {
        "type": "Point",
        "coordinates": [
          -9.080553843083457,
          -41.59280923976103
        ]
      }
    }
  ]
}